QIANFAN-89              
1 63175U 25046S   25356.20888549  .00000146  00000+0  20742-3 0  9992
2 63175  88.9772 319.0577 0018404  96.1038 264.2211 13.50979068 48683
QIANFAN-90              
1 63176U 25046T   25356.23762057  .00000140  00000+0  19764-3 0  9997
2 63176  88.9772 319.0271 0015353  94.0886 266.2021 13.50979356 48707
QIANFAN-91              
1 66033U 25233A   25355.62454383  .00000056  00000+0  51174-4 0  9990
2 66033  88.9945  61.2210 0016872  19.1732 341.0059 13.67494091  9197
QIANFAN-92              
1 66034U 25233B   25356.18872793  .00000056  00000+0  52047-4 0  9992
2 66034  88.9955  61.1567 0016879  16.6269 343.5441 13.66829396  9277
QIANFAN-93              
1 66035U 25233C   25355.62879997 -.02071385  00000+0 -27109+1 0  9998
2 66035  88.9948  61.2232 0018358  29.6152 330.6043 13.65665014  9199
QIANFAN-94              
1 66036U 25233D   25356.22355927  .00000064  00000+0  56242-4 0  9994
2 66036  88.9953  61.1451 0015598  15.7024 344.4620 13.72043129  9284
QIANFAN-95              
1 66037U 25233E   25356.17220356 -.02049958  00000+0 -13245+1 0  9997
2 66037  88.9944  60.9921 0016082  17.9760 342.1988 14.06986145  9367
QIANFAN-96              
1 66038U 25233F   25356.16635603 -.02045023  00000+0 -27533+1 0  9996
2 66038  88.9942  61.1739 0019857  24.2040 336.0047 13.63846698  9268
